{
    "links": {
        "self": "http://www.neowsapp.com/rest/v1/neo/3546743?api_key=iIulBulltgU6a56xZRHN4H3l9WmuAYTsLGpBGhQ2"
    },
    "id": "3546743",
    "neo_reference_id": "3546743",
    "name": "(2010 SP3)",
    "designation": "2010 SP3",
    "nasa_jpl_url": "http://ssd.jpl.nasa.gov/sbdb.cgi?sstr=3546743",
    "absolute_magnitude_h": 24.8,
    "estimated_diameter": {
        "kilometers": {
            "estimated_diameter_min": 0.0291443905,
            "estimated_diameter_max": 0.0651688382
        },
        "meters": {
            "estimated_diameter_min": 29.1443904535,
            "estimated_diameter_max": 65.1688382168
        },
        "miles": {
            "estimated_diameter_min": 0.018109479,
            "estimated_diameter_max": 0.0404940262
        },
        "feet": {
            "estimated_diameter_min": 95.6180819754,
            "estimated_diameter_max": 213.8085311752
        }
    },
    "is_potentially_hazardous_asteroid": false,
    "close_approach_data": [
        {
            "close_approach_date": "2010-04-08",
            "close_approach_date_full": "2010-Apr-08 22:30",
            "epoch_date_close_approach": 1270765800000,
            "relative_velocity": {
                "kilometers_per_second": "16.4208078278",
                "kilometers_per_hour": "59114.9081802208",
                "miles_per_hour": "36731.7050300933"
            },
            "miss_distance": {
                "astronomical": "0.0903629518",
                "lunar": "35.1511882502",
                "kilometers": "13518105.116192666",
                "miles": "8399761.0171081508"
            },
            "orbiting_body": "Mars"
        },
        {
            "close_approach_date": "2010-09-13",
            "close_approach_date_full": "2010-Sep-13 17:30",
            "epoch_date_close_approach": 1284399000000,
            "relative_velocity": {
                "kilometers_per_second": "16.9540001091",
                "kilometers_per_hour": "61034.4003928133",
                "miles_per_hour": "37924.4028440789"
            },
            "miss_distance": {
                "astronomical": "0.0123823953",
                "lunar": "4.8167517717",
                "kilometers": "1852379.962378011",
                "miles": "1151015.5353221118"
            },
            "orbiting_body": "Earth"
        }
    ],
    "orbital_data": {
        "orbit_id": "9",
        "orbit_determination_date": "2017-04-06 08:56:37",
        "first_observation_date": "2010-09-17",
        "last_observation_date": "2010-10-01",
        "data_arc_in_days": 14,
        "observations_used": 34,
        "orbit_uncertainty": "8",
        "minimum_orbit_intersection": ".00311267",
        "jupiter_tisserand_invariant": "3.572",
        "epoch_osculation": "2455461.5",
        "eccentricity": ".6338349472074523",
        "semi_major_axis": "1.989330859781869",
        "inclination": ".4524085083754771",
        "ascending_node_longitude": "228.4619016986688",
        "orbital_period": "1024.846816696323",
        "perihelion_distance": ".7284234392938724",
        "perihelion_argument": "49.76066929146469",
        "aphelion_distance": "3.250238280269865",
        "perihelion_time": "2455407.789980273835",
        "mean_anomaly": "18.86682652120567",
        "mean_motion": ".3512720087871171",
        "equinox": "J2000",
        "orbit_class": {
            "orbit_class_type": "APO",
            "orbit_class_description": "Near-Earth asteroid orbits which cross the Earth’s orbit similar to that of 1862 Apollo",
            "orbit_class_range": "a (semi-major axis) > 1.0 AU; q (perihelion) < 1.017 AU"
        }
    },
    "is_sentry_object": false
}